[{"OBJECT_NAME":"YUNYAO-1 48","OBJECT_ID":"2025-059F","EPOCH":"2026-03-09T22:24:05.789376","MEAN_MOTION":15.10574052,"ECCENTRICITY":0.00165064,"INCLINATION":97.6074,"RA_OF_ASC_NODE":250.9983,"ARG_OF_PERICENTER":137.6901,"MEAN_ANOMALY":222.5605,"EPHEMERIS_TYPE":0,"CLASSIFICATION_TYPE":"U","NORAD_CAT_ID":63349,"ELEMENT_SET_NO":999,"REV_AT_EPOCH":5331,"BSTAR":0.00030523847,"MEAN_MOTION_DOT":4.989e-5,"MEAN_MOTION_DDOT":0},{"OBJECT_NAME":"POPSAT-HIP-1","OBJECT_ID":"2014-033U","EPOCH":"2026-03-09T23:26:47.463936","MEAN_MOTION":15.1379217,"ECCENTRICITY":0.00074107,"INCLINATION":98.1028,"RA_OF_ASC_NODE":73.4567,"ARG_OF_PERICENTER":158.1927,"MEAN_ANOMALY":201.962,"EPHEMERIS_TYPE":0,"CLASSIFICATION_TYPE":"U","NORAD_CAT_ID":40028,"ELEMENT_SET_NO":999,"REV_AT_EPOCH":63778,"BSTAR":0.00046333918,"MEAN_MOTION_DOT":8.298e-5,"MEAN_MOTION_DDOT":0}]
